CORVUS BC4              
1 43767U 18099K   26068.65923737  .00005714  00000+0  33980-3 0  9990
2 43767  97.4206 114.5457 0008046 356.5821   3.5354 15.11615710397368
STARLINK-5443           
1 54781U 22175Z   26068.32186877  .00000444  00000+0  46012-4 0  9994
2 54781  53.2191  30.7895 0001458  89.9978 270.1181 15.08833791180079
